#dP2023  4  9 12  0  0.00000000      96 __u+U ITR00 EXT  IAC
## 2257  43200.00000000   900.00000000 60043 0.5000000000000
+  119   C06C07C08C09C10C11C12C13C14C16C19C20C21C22C23C24C25
+        C26C27C28C29C30C32C33C34C35C36C37C38C39C40C41C42C43
+        C44C45C46E01E02E03E04E05E07E08E09E10E11E12E13E14E15
+        E18E19E21E24E25E26E27E30E31E33E34E36G01G02G03G04G05
+        G06G07G08G09G10G11G12G13G14G15G16G17G18G19G20G21G22
+        G23G24G25G26G27G28G29G30G31G32J02J03J04R01R02R03R04
+        R05R07R08R09R11R12R13R14R15R16R17R18R19R20R22R24R25
++         9  9  9  9  8  8  8  8  8  9  8  8  7  8  8  9  7
++         9  8  8  8  8  8  8  8 10  7  8  9 11 11  9 10  9
++         9  9  9  7  7  7  7  7  6  7  7  7  7  8  7  7  7
++         7  8  7  7  8  8  7  6  7  8  6  7  7  7  7  8  7
++         6  7  7  8  8  8  7  7  8  7  7  8  8  7  7  6  7
++         7  7  7  8  7  8  7  7  7  7  9 10  8  9  7  7  7
++         7  8  8  8  9  8  9  8  8  8  8  7  8  7  8  7  7
%c M  cc GPS ccc cccc cccc cccc cccc ccccc ccccc ccccc ccccc
%c cc cc ccc ccc cccc cccc cccc cccc ccccc ccccc ccccc ccccc
%f  0.0000000  0.000000000  0.00000000000  0.000000000000000
%f  0.0000000  0.000000000  0.00000000000  0.000000000000000
%i    0    0    0    0      0      0      0      0         0
%i    0    0    0    0      0      0      0      0         0
/* IAC                                ULTRA-RAPID PREDICTION
/* S/V CLOCKS ARE ALIGNED TO GNSS TIME                      
/* G:C1WC2W R:C1PC2P E:C1XC5X C:C2IC6I J:C1CC2S             
/* PCV:IGS20_2247 OL/AL:FES2004  NONE     YN ORB:CoN CLK:CoN
*  2023 04 10  5 45  0.00000000
PC06  -2868.723758  36002.693244 -21510.877017   -197.222512
PC07 -13001.561748  25755.219143  30748.707122   -148.004979
PC08 -18467.449271  35981.440020 -12229.556226    507.293979
PC09   3562.845208  39613.500152 -12731.968064    784.166836
PC10  -3364.837340  27236.514522  32277.594120    -29.637387
PC11 -17564.122860  -1585.846116  21685.520972    292.207192
PC12 -18539.425073 -18720.489521   9228.205027    561.946696
PC13 -12621.045868  36285.933618 -17510.041952    249.403172
PC14 -27443.816760   3559.903864  -3306.315385    103.591255
PC16  -4451.838119  34244.916331 -23759.962947    113.802373
PC19  23305.660513  -9401.399283  12192.989829   -900.178793
PC20  27535.200501   1685.585938  -4313.457277    633.799539
PC21 -15335.109133 -12693.270921  19567.535588   -909.613950
PC22   5470.491480 -15611.821892  22484.865028   -543.180592
PC23  -9264.418738  25813.563498   5163.720142   -902.897941
PC24 -16846.374612  -2215.131858 -22155.144163   -189.388267
PC25 -17958.517616  18131.804245 -11324.995270    103.761088
PC26  -6638.026018 -18600.963744 -19717.713756   -104.159650
PC27  15316.172024  23294.691860  -1036.382060    123.408894
PC28   2680.907801  23603.844852  14641.948107     90.814713
PC29  12710.819095  -9701.512435 -22879.534749    105.134763
PC30  20400.751477   9959.979430 -16221.601880      0.479241
PC32  15425.218279  12572.647709 -19548.457148   -581.869172
PC33 -23291.365711   9482.970720 -12063.590215   -872.896857
PC34 -20293.187592  -8779.832658  17025.771217    145.652958
PC35  -2723.681015 -23215.361318 -15290.565600    648.815496
PC36  18546.021230 -17106.566971  11936.232749   -510.256281
PC37   5178.654025  19734.363511  19058.066708   -791.471816
PC38 -22510.694662  35565.734152  -3459.502309     70.771323
PC39  -7390.295324  30321.608212 -28204.119085     -2.494871
PC40 -17755.266353  19146.907998  33033.619754    -19.934201
PC41  -6131.568518  15577.897155 -22265.788617   -831.660233
PC42 -27195.737712  -2577.420939   5679.159507   -744.242407
PC43 -13388.107477   8897.304291  22797.896634     15.975195
PC44 -16058.208304 -22833.213572    788.656949     71.299538
PC45   8984.776076 -25804.802891  -5615.727138    -83.168688
PC46  17334.673096    454.393539  21852.784525    -45.942596
PE01  14425.415913 -20789.016885 -15358.040518     -3.919300
PE02 -14023.673566  20818.462230  15693.905796     31.464987
PE03  -2444.065361  17645.186622 -23637.635459   -667.731310
PE04 -17078.969712 -20173.874235  13334.678076    -97.319207
PE05 -21043.505257   4650.663096 -20280.996590    -78.199820
PE07  27040.817841  10995.613844   4946.620246    -36.466297
PE08  16975.052090  20106.450350 -13559.738856    -64.996136
PE09 -27010.585109 -11105.926098  -4770.064177   -899.654686
PE10 -12309.319473 -19597.608161  18449.078842   -525.393144
PE11 -15487.868337  -8674.045087  23679.579020   1555.197443
PE12  -7502.650900 -26526.458857  10812.064790   -492.739234
PE13  15289.751820   9537.272518 -23478.314929    -18.420935
PE14    435.055589 -20547.089838 -20370.235801    192.910671
PE15   7329.096750  26668.347187 -10526.380798    -13.529266
PE18  16674.658819  21672.842723   9187.133805   -182.927908
PE19   5292.562214 -16272.781454  24165.454126  -2801.285367
PE21  25760.160418 -14536.709175   1064.749249   -522.517884
PE24 -22979.418011  -1312.792683 -18644.494395    -36.018278
PE25 -25865.195532  14333.770562  -1397.603075   -602.997219
PE26  14125.917883 -13773.444038 -22066.791880     70.859042
PE27  23358.087302    553.237779  18164.010640    -21.436413
PE30   6569.134814  15557.787797  24296.376403    -80.873655
PE31  -7235.660001 -15146.666149 -24378.580717   -520.897117
PE33   4892.331566 -27927.836871  -8529.954014   -446.713009
PE34  -4745.673082  27988.028278   8377.491510    -39.439659
PE36 -14199.435372  12931.331307  22518.816888    -39.134350
PG01 -13139.313478  12279.408890  19087.351528    194.624289
PG02   9088.415453 -20035.299343 -14605.939553   -607.460101
PG03 -23040.320648  13055.759090   -942.388163   -332.573276
PG04 -16634.068062   5595.388682 -19957.458977     13.232215
PG05  22519.882205  -1969.871465 -14209.085909   -122.830486
PG06   5624.349143  23867.170476 -10016.174513    586.256487
PG07  -6915.519745  23748.120783  -8537.776773    204.679929
PG08 -23583.032618  -4180.949440  11828.098209   -117.051031
PG09  -6343.827921  14057.862616 -21691.963637   -183.140920
PG10   -565.613939 -16004.452744  21308.560727    -32.197301
PG11  12631.262232  12578.931831 -19692.524798   -157.586156
PG12  24426.887462 -10221.752216    985.381363   -362.096583
PG13  22459.751433  12527.610366   6869.993027    503.523338
PG14  -2919.495061  17335.701167  19876.877498     20.619491
PG15  23813.927135   1171.204125  11521.636359     29.279212
PG16 -21409.114794  -2926.664259 -16046.551882   -509.894749
PG17   7356.592226  19365.449648  16992.591000    709.847094
PG18   5045.429279 -25401.376603  -5532.176797   -217.595850
PG19  15752.893854  19679.659342   8584.261144    301.639707
PG20  16498.973455   5406.963072 -20012.063000    439.897265
PG21 -15301.273538   2396.770241  22097.372693    154.257562
PG22 -17768.506461 -18888.234808   6573.317946    461.403383
PG23  11766.597720 -18473.217059  14924.267983     15.847664
PG24  14566.483774  -8004.986933  20281.530565   -145.954290
PG25  18467.872770 -17046.445971  -8470.601572    434.455505
PG26 -11560.336572 -11278.596541 -21234.207228    241.816103
PG27 -23337.473543 -13011.166557   1690.628854     62.227067
PG28  -5722.723297 -24655.676823  -8086.226942     62.257085
PG29  10864.237242 -10409.938338 -21943.187527   -594.857769
PG30    938.292661  26266.385994   2742.808745   -523.088350
PG31  -9349.862449 -19928.636490 -14718.076442   -213.628506
PG32 -11273.935859 -19109.081089  14924.849016   -447.480867
PJ02 -30463.609674  28451.576135  11655.767026     -1.474266
PJ03 -26166.353387  24360.770434  27418.378950      2.071594
PJ04 -32790.966168  20648.824504 -11465.285405     94.170055
PR01  12669.505992  -8433.554587  20482.672571     26.380489
PR02  -7371.390075 -11374.828353  21672.655994    -22.989270
PR03 -22232.055715  -7818.046851   9883.158444     75.746013
PR04 -24488.400731   -235.364263  -7119.948921    182.724536
PR05 -13535.725264   7520.964735 -20259.070805    110.711686
PR07  22622.180647   7477.397624  -8999.681531     53.497060
PR08  24400.103805   -118.186664   7452.310206    -70.291708
PR09  -3049.271979  18520.966408  17247.217427    113.862769
PR11  17016.886862  -9640.532591  16391.977101    -33.321107
PR12  15012.892841 -20568.166233  -1321.548351     26.322178
PR13   4829.982314 -19247.635573 -16043.340351    -33.835974
PR14  -9691.238895  -5611.163503 -22909.841147     24.510383
PR15 -17403.165336  10410.452996 -15455.528571     89.875546
PR16 -14976.035141  20603.469277   1016.358428     13.333886
PR17 -13305.376951 -17442.849359  12992.623587    619.869773
PR18 -11688.558939  -2073.820938  22596.896444     75.770717
PR19  -5262.021011  13244.009635  21151.081416   -228.491820
PR20   6138.095111  24200.143333   5110.928168    -90.845545
PR22  11715.440374   1318.451492 -22593.972698     78.653582
PR24  -7192.462311 -24068.529491  -4400.139520    160.733368
PR25  12608.612682  18178.776175 -12708.454367     60.685516
EOF
